[{"OBJECT_NAME":"STARLINK-5428","OBJECT_ID":"2022-175AU","EPOCH":"2026-03-09T07:13:37.041024","MEAN_MOTION":15.08841997,"ECCENTRICITY":0.00014685,"INCLINATION":53.2185,"RA_OF_ASC_NODE":35.6382,"ARG_OF_PERICENTER":95.1963,"MEAN_ANOMALY":264.9197,"EPHEMERIS_TYPE":0,"CLASSIFICATION_TYPE":"U","NORAD_CAT_ID":54800,"ELEMENT_SET_NO":999,"REV_AT_EPOCH":18000,"BSTAR":0.0001915204,"MEAN_MOTION_DOT":2.762e-5,"MEAN_MOTION_DDOT":0},{"OBJECT_NAME":"OBJECT M","OBJECT_ID":"2017-042M","EPOCH":"2026-03-09T22:38:39.337440","MEAN_MOTION":15.07991931,"ECCENTRICITY":0.0005117,"INCLINATION":97.4139,"RA_OF_ASC_NODE":234.2602,"ARG_OF_PERICENTER":83.1417,"MEAN_ANOMALY":277.0393,"EPHEMERIS_TYPE":0,"CLASSIFICATION_TYPE":"U","NORAD_CAT_ID":42836,"ELEMENT_SET_NO":999,"REV_AT_EPOCH":47205,"BSTAR":0.00047182615,"MEAN_MOTION_DOT":7.201e-5,"MEAN_MOTION_DDOT":0}]
